FLOCK 2K-32             
1 42870U 17042AX  17287.49200925  .00020843  00000-0  63111-3 0  9993
2 42870  96.9946 191.5995 0009705 284.5516  75.4652 15.34144942 13939
FLOCK 2K-29             
1 42871U 17042AY  17287.16470736  .00021065  00000-0  63728-3 0  9998
2 42871  96.9949 191.2936 0009863 285.1380  74.8772 15.34167398 13886
FLOCK 2K-30             
1 42872U 17042AZ  17287.49012954  .00015793  00000-0  47810-3 0  9994
2 42872  96.9947 191.6016 0009799 285.0803  74.9356 15.34206057 13925
FLOCK 2K-44             
1 42873U 17042BA  17287.55262335  .00017408  00000-0  52798-3 0  9998
2 42873  96.9949 191.6692 0010569 270.6181  89.3852 15.34118007 13944
FLOCK 2K-43             
1 42874U 17042BB  17287.43076983  .00004466  00000-0  13981-3 0  9999
2 42874  96.9950 191.5334 0011029 270.8728  89.1251 15.33533547 13928
FLOCK 2K-41             
1 42875U 17042BC  17287.42069638  .00011147  00000-0  33909-3 0  9994
2 42875  96.9948 191.5442 0010663 272.5663  87.4360 15.34122798 13921
FLOCK 2K-36             
1 42876U 17042BD  17287.28705948  .00008691  00000-0  26469-3 0  9993
2 42876  96.9950 191.4275 0010783 272.5485  87.4524 15.34151994 13903
FLOCK 2K-35             
1 42877U 17042BE  17287.48476619  .00021460  00000-0  64933-3 0  9993
2 42877  96.9947 191.6099 0010763 271.7918  88.2093 15.34150267 13931
FLOCK 2K-34             
1 42878U 17042BF  17287.48147945  .00019399  00000-0  58631-3 0  9997
2 42878  96.9948 191.6102 0010877 271.7120  88.2878 15.34205031 13930
FLOCK 2K-33             
1 42879U 17042BG  17287.54391863  .00011075  00000-0  33623-3 0  9992
2 42879  96.9944 191.6758 0010919 270.8492  89.1501 15.34182768 13948
FLOCK 2K-28             
1 42880U 17042BH  17287.36244231  .00004269  00000-0  13366-3 0  9999
2 42880  96.9951 191.4769 0011104 271.6718  88.3253 15.33552605 13917
LEMUR-2-ARTFISCHER      
1 42881U 17042BJ  17287.55154946  .00008313  00000-0  25531-3 0  9995
2 42881  96.9977 191.6976 0011604 274.0093  85.9825 15.33887728 13933
FLOCK 2K-27             
1 42882U 17042BK  17287.54181635  .00006645  00000-0  20290-3 0  9993
2 42882  96.9949 191.6823 0011031 271.8489  88.1492 15.34155891 13948
FLOCK 2K-26             
1 42883U 17042BL  17287.66946050  .00006181  00000-0  18891-3 0  9996
2 42883  96.9949 191.8075 0011030 270.3077  89.6903 15.34150673 13964
FLOCK 2K-25             
1 42884U 17042BM  17287.41445837  .00015270  00000-0  46293-3 0  9993
2 42884  96.9944 191.5494 0010854 271.4302  88.5698 15.34155745 13928
FLOCK 2K-20             
1 42885U 17042BN  17287.40719484  .00004563  00000-0  14003-3 0  9992
2 42885  96.9948 191.5637 0011090 271.6014  88.3959 15.34159521 13921
FLOCK 2K-19             
1 42886U 17042BP  17287.80155825  .00008709  00000-0  26536-3 0  9990
2 42886  96.9950 191.9316 0011132 269.8975  90.0993 15.34133809 13980
FLOCK 2K-18             
1 42887U 17042BQ  17287.72700971  .00007819  00000-0  23652-3 0  9997
2 42887  96.9948 191.8787 0011338 268.2422  91.7523 15.34393292 13977
FLOCK 2K-17             
1 42888U 17042BR  17287.53398055  .00010691  00000-0  32376-3 0  9998
2 42888  96.9943 191.6862 0011292 269.6919  90.3031 15.34268519 13949
FLOCK 2K-16             
1 42889U 17042BS  17287.40620808  .00007041  00000-0  21399-3 0  9997
2 42889  96.9948 191.5657 0010912 270.4475  89.5519 15.34285318 13926
FLOCK 2K-15             
1 42890U 17042BT  17287.72618711  .00004351  00000-0  13264-3 0  9997
2 42890  96.9954 191.8855 0011283 267.9059  92.0893 15.34390385 13979
FLOCK 2K-13             
1 42891U 17042BU  17287.21008727  .00011998  00000-0  36360-3 0  9999
2 42891  96.9946 191.3787 0011179 268.3775  91.6188 15.34217820 13899
FLOCK 2K-14             
1 42892U 17042BV  17287.72792753  .00004146  00000-0  12674-3 0  9994
2 42892  96.9947 191.8739 0011277 267.7586  92.2367 15.34328982 13972
FLOCK 2K-12             
1 42893U 17042BW  17287.72466607  .00004900  00000-0  14868-3 0  9996
2 42893  96.9951 191.8838 0011255 267.1806  92.8150 15.34479908 13974
FLOCK 2K-11             
1 42894U 17042BX  17287.20702957  .00008947  00000-0  27134-3 0  9996
2 42894  96.9950 191.3850 0011256 267.3410  92.6545 15.34270028 13896
FLOCK 2K-10             
1 42895U 17042BY  17287.72426821  .00004316  00000-0  13184-3 0  9993
2 42895  96.9946 191.8785 0011369 265.8058  94.1886 15.34331778 13974
FLOCK 2K-09             
1 42896U 17042BZ  17287.52567663  .00004772  00000-0  14529-3 0  9992
2 42896  96.9949 191.7008 0011058 265.1336  94.8645 15.34389857 14110
FLOCK 2K-06             
1 42897U 17042CA  17287.36563707  .00020978  00000-0  63575-3 0  9991
2 42897  96.9947 191.4722 0009629 284.9817  75.0361 15.34116552 13916
SILU-1 (SILKROAD 1)     
1 42903U 17021F   17287.50200416  .00026525  00000-0  30232-3 0  9995
2 42903  42.7826   5.2105 0006926   5.1403  73.6266 15.61679254 11398
